[
  {
    "OBJECT_NAME": "STARLINK-3705",
    "OBJECT_ID": "22029R",
    "EPOCH": "2025-11-11T04:48:12.997152",
    "MEAN_MOTION": 15.0885218,
    "ECCENTRICITY": 0.0001373,
    "INCLINATION": 53.2176,
    "RA_OF_ASC_NODE": 251.0405,
    "ARG_OF_PERICENTER": 97.7688,
    "MEAN_ANOMALY": 262.346,
    "EPHEMERIS_TYPE": 0,
    "CLASSIFICATION_TYPE": "U",
    "NORAD_CAT_ID": 52103,
    "ELEMENT_SET_NO": 999,
    "REV_AT_EPOCH": 20289,
    "BSTAR": 0.00019455,
    "MEAN_MOTION_DOT": 2.811e-05,
    "MEAN_MOTION_DDOT": 0.0,
    "TLE_LINE1": "1 52103U 22029R   25315.20015043  .00002811  00000+0  19455-3 0  9995",
    "TLE_LINE2": "2 52103  53.2176 251.0405 0001373  97.7688 262.3460 15.08852180202895",
    "COMMENT": "Grouped by shell and plane from TLE"
  },
  {
    "OBJECT_NAME": "STARLINK-3706",
    "OBJECT_ID": "22029T",
    "EPOCH": "2025-11-11T03:03:38.210112",
    "MEAN_MOTION": 15.08828505,
    "ECCENTRICITY": 0.0001332,
    "INCLINATION": 53.2186,
    "RA_OF_ASC_NODE": 251.3684,
    "ARG_OF_PERICENTER": 87.6208,
    "MEAN_ANOMALY": 272.4937,
    "EPHEMERIS_TYPE": 0,
    "CLASSIFICATION_TYPE": "U",
    "NORAD_CAT_ID": 52105,
    "ELEMENT_SET_NO": 999,
    "REV_AT_EPOCH": 20288,
    "BSTAR": 0.0,
    "MEAN_MOTION_DOT": -8.28e-06,
    "MEAN_MOTION_DDOT": 0.0,
    "TLE_LINE1": "1 52105U 22029T   25315.12752558 -.00000828  00000+0 -33946-4 0  9997",
    "TLE_LINE2": "2 52105  53.2186 251.3684 0001332  87.6208 272.4937 15.08828505202885",
    "COMMENT": "Grouped by shell and plane from TLE"
  },
  {
    "OBJECT_NAME": "STARLINK-3658",
    "OBJECT_ID": "22029V",
    "EPOCH": "2025-11-11T02:56:55.903200",
    "MEAN_MOTION": 15.08851853,
    "ECCENTRICITY": 0.0001329,
    "INCLINATION": 53.2163,
    "RA_OF_ASC_NODE": 251.3893,
    "ARG_OF_PERICENTER": 87.7013,
    "MEAN_ANOMALY": 272.4132,
    "EPHEMERIS_TYPE": 0,
    "CLASSIFICATION_TYPE": "U",
    "NORAD_CAT_ID": 52107,
    "ELEMENT_SET_NO": 999,
    "REV_AT_EPOCH": 20288,
    "BSTAR": 0.00014038,
    "MEAN_MOTION_DOT": 1.948e-05,
    "MEAN_MOTION_DDOT": 0.0,
    "TLE_LINE1": "1 52107U 22029V   25315.12286925  .00001948  00000+0  14038-3 0  9991",
    "TLE_LINE2": "2 52107  53.2163 251.3893 0001329  87.7013 272.4132 15.08851853202884",
    "COMMENT": "Grouped by shell and plane from TLE"
  },
  {
    "OBJECT_NAME": "STARLINK-3698",
    "OBJECT_ID": "22029W",
    "EPOCH": "2025-11-11T04:42:55.724256",
    "MEAN_MOTION": 15.0885013,
    "ECCENTRICITY": 0.0001139,
    "INCLINATION": 53.2179,
    "RA_OF_ASC_NODE": 251.0589,
    "ARG_OF_PERICENTER": 90.2571,
    "MEAN_ANOMALY": 269.8552,
    "EPHEMERIS_TYPE": 0,
    "CLASSIFICATION_TYPE": "U",
    "NORAD_CAT_ID": 52108,
    "ELEMENT_SET_NO": 999,
    "REV_AT_EPOCH": 20289,
    "BSTAR": 9.6298e-05,
    "MEAN_MOTION_DOT": 1.245e-05,
    "MEAN_MOTION_DDOT": 0.0,
    "TLE_LINE1": "1 52108U 22029W   25315.19647829  .00001245  00000+0  96298-4 0  9992",
    "TLE_LINE2": "2 52108  53.2179 251.0589 0001139  90.2571 269.8552 15.08850130202892",
    "COMMENT": "Grouped by shell and plane from TLE"
  },
  {
    "OBJECT_NAME": "STARLINK-3687",
    "OBJECT_ID": "22029Y",
    "EPOCH": "2025-11-11T04:37:37.392960",
    "MEAN_MOTION": 15.08846229,
    "ECCENTRICITY": 0.0001372,
    "INCLINATION": 53.2169,
    "RA_OF_ASC_NODE": 251.0714,
    "ARG_OF_PERICENTER": 85.1379,
    "MEAN_ANOMALY": 274.977,
    "EPHEMERIS_TYPE": 0,
    "CLASSIFICATION_TYPE": "U",
    "NORAD_CAT_ID": 52110,
    "ELEMENT_SET_NO": 999,
    "REV_AT_EPOCH": 20289,
    "BSTAR": 0.00016892,
    "MEAN_MOTION_DOT": 2.402e-05,
    "MEAN_MOTION_DDOT": 0.0,
    "TLE_LINE1": "1 52110U 22029Y   25315.19279390  .00002402  00000+0  16892-3 0  9996",
    "TLE_LINE2": "2 52110  53.2169 251.0714 0001372  85.1379 274.9770 15.08846229202895",
    "COMMENT": "Grouped by shell and plane from TLE"
  },
  {
    "OBJECT_NAME": "STARLINK-3708",
    "OBJECT_ID": "22029Z",
    "EPOCH": "2025-11-11T05:51:46.216224",
    "MEAN_MOTION": 15.08878207,
    "ECCENTRICITY": 0.0001387,
    "INCLINATION": 53.2171,
    "RA_OF_ASC_NODE": 250.8423,
    "ARG_OF_PERICENTER": 83.6133,
    "MEAN_ANOMALY": 276.5017,
    "EPHEMERIS_TYPE": 0,
    "CLASSIFICATION_TYPE": "U",
    "NORAD_CAT_ID": 52111,
    "ELEMENT_SET_NO": 999,
    "REV_AT_EPOCH": 20290,
    "BSTAR": 0.00038542,
    "MEAN_MOTION_DOT": 5.858e-05,
    "MEAN_MOTION_DDOT": 0.0,
    "TLE_LINE1": "1 52111U 22029Z   25315.24428491  .00005858  00000+0  38542-3 0  9995",
    "TLE_LINE2": "2 52111  53.2171 250.8423 0001387  83.6133 276.5017 15.08878207202905",
    "COMMENT": "Grouped by shell and plane from TLE"
  },
  {
    "OBJECT_NAME": "STARLINK-3734",
    "OBJECT_ID": "22029AA",
    "EPOCH": "2025-11-11T04:27:01.965888",
    "MEAN_MOTION": 15.08839927,
    "ECCENTRICITY": 0.0001256,
    "INCLINATION": 53.2165,
    "RA_OF_ASC_NODE": 251.1063,
    "ARG_OF_PERICENTER": 92.6828,
    "MEAN_ANOMALY": 267.4308,
    "EPHEMERIS_TYPE": 0,
    "CLASSIFICATION_TYPE": "U",
    "NORAD_CAT_ID": 52112,
    "ELEMENT_SET_NO": 999,
    "REV_AT_EPOCH": 20289,
    "BSTAR": 0.00030925,
    "MEAN_MOTION_DOT": 4.637e-05,
    "MEAN_MOTION_DDOT": 0.0,
    "TLE_LINE1": "1 52112U 22029AA  25315.18543942  .00004637  00000+0  30925-3 0  9999",
    "TLE_LINE2": "2 52112  53.2165 251.1063 0001256  92.6828 267.4308 15.08839927202895",
    "COMMENT": "Grouped by shell and plane from TLE"
  },
  {
    "OBJECT_NAME": "STARLINK-3736",
    "OBJECT_ID": "22029AB",
    "EPOCH": "2025-11-11T05:41:12.535296",
    "MEAN_MOTION": 15.08846597,
    "ECCENTRICITY": 0.0001441,
    "INCLINATION": 53.2176,
    "RA_OF_ASC_NODE": 250.8739,
    "ARG_OF_PERICENTER": 91.6172,
    "MEAN_ANOMALY": 268.4986,
    "EPHEMERIS_TYPE": 0,
    "CLASSIFICATION_TYPE": "U",
    "NORAD_CAT_ID": 52113,
    "ELEMENT_SET_NO": 999,
    "REV_AT_EPOCH": 20290,
    "BSTAR": 7.3027e-05,
    "MEAN_MOTION_DOT": 8.75e-06,
    "MEAN_MOTION_DDOT": 0.0,
    "TLE_LINE1": "1 52113U 22029AB  25315.23695064  .00000875  00000+0  73027-4 0  9990",
    "TLE_LINE2": "2 52113  53.2176 250.8739 0001441  91.6172 268.4986 15.08846597202907",
    "COMMENT": "Grouped by shell and plane from TLE"
  },
  {
    "OBJECT_NAME": "STARLINK-3737",
    "OBJECT_ID": "22029AC",
    "EPOCH": "2025-11-11T05:57:07.529184",
    "MEAN_MOTION": 15.088634,
    "ECCENTRICITY": 0.0001545,
    "INCLINATION": 53.2155,
    "RA_OF_ASC_NODE": 250.8255,
    "ARG_OF_PERICENTER": 70.4903,
    "MEAN_ANOMALY": 289.6256,
    "EPHEMERIS_TYPE": 0,
    "CLASSIFICATION_TYPE": "U",
    "NORAD_CAT_ID": 52114,
    "ELEMENT_SET_NO": 999,
    "REV_AT_EPOCH": 20290,
    "BSTAR": 0.00058472,
    "MEAN_MOTION_DOT": 9.036e-05,
    "MEAN_MOTION_DDOT": 0.0,
    "TLE_LINE1": "1 52114U 22029AC  25315.24800381  .00009036  00000+0  58472-3 0  9996",
    "TLE_LINE2": "2 52114  53.2155 250.8255 0001545  70.4903 289.6256 15.08863400202907",
    "COMMENT": "Grouped by shell and plane from TLE"
  },
  {
    "OBJECT_NAME": "STARLINK-3685",
    "OBJECT_ID": "22029AD",
    "EPOCH": "2025-11-11T05:30:37.322496",
    "MEAN_MOTION": 15.0885179,
    "ECCENTRICITY": 0.0002014,
    "INCLINATION": 53.2171,
    "RA_OF_ASC_NODE": 250.9071,
    "ARG_OF_PERICENTER": 84.6958,
    "MEAN_ANOMALY": 275.4264,
    "EPHEMERIS_TYPE": 0,
    "CLASSIFICATION_TYPE": "U",
    "NORAD_CAT_ID": 52115,
    "ELEMENT_SET_NO": 999,
    "REV_AT_EPOCH": 20290,
    "BSTAR": 0.00059469,
    "MEAN_MOTION_DOT": 9.192e-05,
    "MEAN_MOTION_DDOT": 0.0,
    "TLE_LINE1": "1 52115U 22029AD  25315.22959864  .00009192  00000+0  59469-3 0  9996",
    "TLE_LINE2": "2 52115  53.2171 250.9071 0002014  84.6958 275.4264 15.08851790202903",
    "COMMENT": "Grouped by shell and plane from TLE"
  },
  {
    "OBJECT_NAME": "STARLINK-3735",
    "OBJECT_ID": "22029AE",
    "EPOCH": "2025-11-11T05:46:31.135296",
    "MEAN_MOTION": 15.08809992,
    "ECCENTRICITY": 0.0001372,
    "INCLINATION": 53.2158,
    "RA_OF_ASC_NODE": 250.8592,
    "ARG_OF_PERICENTER": 72.5424,
    "MEAN_ANOMALY": 287.5718,
    "EPHEMERIS_TYPE": 0,
    "CLASSIFICATION_TYPE": "U",
    "NORAD_CAT_ID": 52116,
    "ELEMENT_SET_NO": 999,
    "REV_AT_EPOCH": 20290,
    "BSTAR": 0.0,
    "MEAN_MOTION_DOT": -0.00010854,
    "MEAN_MOTION_DDOT": 0.0,
    "TLE_LINE1": "1 52116U 22029AE  25315.24063814 -.00010854  00000+0 -66546-3 0  9993",
    "TLE_LINE2": "2 52116  53.2158 250.8592 0001372  72.5424 287.5718 15.08809992202901",
    "COMMENT": "Grouped by shell and plane from TLE"
  },
  {
    "OBJECT_NAME": "STARLINK-3738",
    "OBJECT_ID": "22029AF",
    "EPOCH": "2025-11-11T02:09:15.848928",
    "MEAN_MOTION": 15.08840186,
    "ECCENTRICITY": 0.0001724,
    "INCLINATION": 53.2199,
    "RA_OF_ASC_NODE": 251.5369,
    "ARG_OF_PERICENTER": 83.0356,
    "MEAN_ANOMALY": 277.0832,
    "EPHEMERIS_TYPE": 0,
    "CLASSIFICATION_TYPE": "U",
    "NORAD_CAT_ID": 52117,
    "ELEMENT_SET_NO": 999,
    "REV_AT_EPOCH": 20289,
    "BSTAR": 0.0,
    "MEAN_MOTION_DOT": -1.686e-05,
    "MEAN_MOTION_DDOT": 0.0,
    "TLE_LINE1": "1 52117U 22029AF  25315.08976677 -.00001686  00000+0 -87827-4 0  9995",
    "TLE_LINE2": "2 52117  53.2199 251.5369 0001724  83.0356 277.0832 15.08840186202898",
    "COMMENT": "Grouped by shell and plane from TLE"
  },
  {
    "OBJECT_NAME": "STARLINK-3743",
    "OBJECT_ID": "22029AG",
    "EPOCH": "2025-11-11T05:35:54.509856",
    "MEAN_MOTION": 15.08850399,
    "ECCENTRICITY": 0.0001436,
    "INCLINATION": 53.2183,
    "RA_OF_ASC_NODE": 250.8897,
    "ARG_OF_PERICENTER": 90.7218,
    "MEAN_ANOMALY": 269.3939,
    "EPHEMERIS_TYPE": 0,
    "CLASSIFICATION_TYPE": "U",
    "NORAD_CAT_ID": 52118,
    "ELEMENT_SET_NO": 999,
    "REV_AT_EPOCH": 20290,
    "BSTAR": 9.5041e-05,
    "MEAN_MOTION_DOT": 1.225e-05,
    "MEAN_MOTION_DDOT": 0.0,
    "TLE_LINE1": "1 52118U 22029AG  25315.23326979  .00001225  00000+0  95041-4 0  9991",
    "TLE_LINE2": "2 52118  53.2183 250.8897 0001436  90.7218 269.3939 15.08850399202903",
    "COMMENT": "Grouped by shell and plane from TLE"
  }
]